[{"OBJECT_NAME":"LEMUR-2-ANDIS","OBJECT_ID":"2017-042P","EPOCH":"2026-03-09T13:25:33.116448","MEAN_MOTION":15.30557934,"ECCENTRICITY":0.0009101,"INCLINATION":97.3659,"RA_OF_ASC_NODE":249.795,"ARG_OF_PERICENTER":4.3248,"MEAN_ANOMALY":355.807,"EPHEMERIS_TYPE":0,"CLASSIFICATION_TYPE":"U","NORAD_CAT_ID":42838,"ELEMENT_SET_NO":999,"REV_AT_EPOCH":47319,"BSTAR":0.00079875,"MEAN_MOTION_DOT":0.00023598,"MEAN_MOTION_DDOT":0},{"OBJECT_NAME":"STARLINK-1422","OBJECT_ID":"2020-035AR","EPOCH":"2026-03-09T07:37:25.169952","MEAN_MOTION":15.30216632,"ECCENTRICITY":0.00012482,"INCLINATION":53.1601,"RA_OF_ASC_NODE":51.3097,"ARG_OF_PERICENTER":97.1676,"MEAN_ANOMALY":262.9467,"EPHEMERIS_TYPE":0,"CLASSIFICATION_TYPE":"U","NORAD_CAT_ID":45696,"ELEMENT_SET_NO":999,"REV_AT_EPOCH":31891,"BSTAR":0.00022631419,"MEAN_MOTION_DOT":6.353e-5,"MEAN_MOTION_DDOT":0}]
